[{"OBJECT_NAME":"KUIPER-00070","OBJECT_ID":"2025-151B","EPOCH":"2026-03-09T20:32:33.833760","MEAN_MOTION":14.799361,"ECCENTRICITY":9.451e-5,"INCLINATION":51.9,"RA_OF_ASC_NODE":304.8248,"ARG_OF_PERICENTER":102.7727,"MEAN_ANOMALY":257.3341,"EPHEMERIS_TYPE":0,"CLASSIFICATION_TYPE":"U","NORAD_CAT_ID":64817,"ELEMENT_SET_NO":999,"REV_AT_EPOCH":3644,"BSTAR":0.00022632458,"MEAN_MOTION_DOT":1.505e-5,"MEAN_MOTION_DDOT":0},{"OBJECT_NAME":"CZ-6A DEB","OBJECT_ID":"2024-140ADZ","EPOCH":"2026-03-08T21:28:21.331776","MEAN_MOTION":14.60642528,"ECCENTRICITY":0.00987964,"INCLINATION":89.114,"RA_OF_ASC_NODE":290.5682,"ARG_OF_PERICENTER":238.4255,"MEAN_ANOMALY":120.7285,"EPHEMERIS_TYPE":0,"CLASSIFICATION_TYPE":"U","NORAD_CAT_ID":64635,"ELEMENT_SET_NO":999,"REV_AT_EPOCH":7823,"BSTAR":0.0016154076,"MEAN_MOTION_DOT":8.439e-5,"MEAN_MOTION_DDOT":0}]
